NORAD_CAT_ID,OBJECT_NAME,OBJECT_TYPE,EPOCH,MEAN_MOTION,ECCENTRICITY,INCLINATION,RA_OF_ASC_NODE,ARG_OF_PERICENTER,MEAN_ANOMALY,BSTAR,MEAN_MOTION_DOT,MEAN_MOTION_DDOT,TLE_LINE0,TLE_LINE1,TLE_LINE2,SEMIMAJOR_AXIS,PERIOD,APOGEE,PERIGEE,DECAYED
55269.0,STARLINK-5277,PAYLOAD,2024-01-24 20:55:31,14.98377885,0.0002695,70.0,198.1281,267.7144,92.3707,-0.00087302,-0.00010507,0.0,0 STARLINK-5277,1 55269U 23010A   24024.87189343 -.00010507  00000-0 -87302-3 0  9996,2 55269  70.0000 198.1281 0002695 267.7144  92.3707 14.98377885 57009,6950.045,96.104,573.783,570.037,0.0
55269.0,STARLINK-5277,PAYLOAD,2024-01-25 14:33:01,14.98330993,0.0002479,70.0003,196.278,268.4773,91.6102,1.7975e-05,1.22e-06,0.0,0 STARLINK-5277,1 55269U 23010A   24025.60626427  .00000122  00000-0  17975-4 0  9997,2 55269  70.0003 196.2780 0002479 268.4773  91.6102 14.98330993 57113,6950.19,96.107,573.778,570.332,0.0
55269.0,STARLINK-5277,PAYLOAD,2024-01-25 19:21:25,14.98330489,0.0002504,70.0004,195.7731,269.3695,90.7177,1.0998e-05,3.8e-07,0.0,0 STARLINK-5277,1 55269U 23010A   24025.80654477  .00000038  00000-0  10998-4 0  9999,2 55269  70.0004 195.7731 0002504 269.3695  90.7177 14.98330489 56555,6950.191,96.107,573.797,570.316,0.0
55269.0,STARLINK-5277,PAYLOAD,2024-01-25 20:57:33,14.98330463,0.0002523,70.0003,195.6048,270.3154,89.7716,9.5202e-06,2.1e-07,0.0,0 STARLINK-5277,1 55269U 23010A   24025.87330472  .00000021  00000-0  95202-5 0  9996,2 55269  70.0003 195.6048 0002523 270.3154  89.7716 14.98330463 57153,6950.191,96.107,573.81,570.303,0.0
55269.0,STARLINK-5277,PAYLOAD,2024-01-26 14:35:01,14.98332361,0.0002721,69.9999,193.7527,273.9779,86.1069,7.139e-05,7.59e-06,0.0,0 STARLINK-5277,1 55269U 23010A   24026.60766158  .00000759  00000-0  71390-4 0  9991,2 55269  69.9999 193.7527 0002721 273.9779  86.1069 14.98332361 57260,6950.186,96.107,573.942,570.159,0.0
55269.0,STARLINK-5277,PAYLOAD,2024-01-26 19:23:25,14.9833413,0.0002681,70.0001,193.2481,273.0746,87.0106,8.9845e-05,9.79e-06,0.0,0 STARLINK-5277,1 55269U 23010A   24026.80793968  .00000979  00000-0  89845-4 0  9990,2 55269  70.0001 193.2481 0002681 273.0746  87.0106 14.98334130 56707,6950.18,96.107,573.908,570.182,0.0
55269.0,STARLINK-5277,PAYLOAD,2024-01-27 13:00:55,14.98329489,0.0002571,70.0005,191.3963,271.3877,88.6987,1.5058e-05,8.7e-07,0.0,0 STARLINK-5277,1 55269U 23010A   24027.54230407  .00000087  00000-0  15058-4 0  9991,2 55269  70.0005 191.3963 0002571 271.3877  88.6987 14.98329489 56816,6950.194,96.107,573.846,570.273,0.0
55269.0,STARLINK-5277,PAYLOAD,2024-01-27 14:37:03,14.98329106,0.000258,70.0004,191.228,271.1346,88.9517,9.3505e-06,1.9e-07,0.0,0 STARLINK-5277,1 55269U 23010A   24027.60906443  .00000019  00000-0  93505-5 0  9997,2 55269  70.0004 191.2280 0002580 271.1346  88.9517 14.98329106 57410,6950.196,96.107,573.854,570.268,0.0
55269.0,STARLINK-5277,PAYLOAD,2024-01-27 21:01:35,14.98328295,0.0002614,70.0005,190.5548,272.4972,87.5888,-4.2827e-06,-1.44e-06,0.0,0 STARLINK-5277,1 55269U 23010A   24027.87610521 -.00000144  00000-0 -42827-5 0  9997,2 55269  70.0005 190.5548 0002614 272.4972  87.5888 14.98328295 57455,6950.198,96.107,573.88,570.246,0.0
55269.0,STARLINK-5277,PAYLOAD,2024-01-28 14:39:03,14.98331999,0.0002652,70.0005,188.7032,275.1462,84.9394,-1.1191e-05,-2.26e-06,0.0,0 STARLINK-5277,1 55269U 23010A   24028.61046285 -.00000226  00000-0 -11191-4 0  9990,2 55269  70.0005 188.7032 0002652 275.1462  84.9394 14.98331999 57568,6950.187,96.107,573.895,570.209,0.0
55269.0,STARLINK-5277,PAYLOAD,2024-01-28 19:27:28,14.98331513,0.0002669,70.0004,188.1983,275.2769,84.8086,-1.6287e-05,-2.87e-06,0.0,0 STARLINK-5277,1 55269U 23010A   24028.81074312 -.00000287  00000-0 -16287-4 0  9992,2 55269  70.0004 188.1983 0002669 275.2769  84.8086 14.98331513 57597,6950.188,96.107,573.908,570.198,0.0
55269.0,STARLINK-5277,PAYLOAD,2024-01-29 11:28:48,14.98332486,0.0002808,70.0001,186.5149,273.6104,86.4734,8.0225e-05,8.64e-06,0.0,0 STARLINK-5277,1 55269U 23010A   24029.47833852  .00000864  00000-0  80225-4 0  9999,2 55269  70.0001 186.5149 0002808 273.6104  86.4734 14.98332486 57699,6950.185,96.107,574.002,570.099,0.0
55269.0,STARLINK-5277,PAYLOAD,2024-01-30 11:30:49,14.98330065,0.0002977,69.9997,183.9898,270.2032,89.8786,8.4432e-06,8e-08,0.0,0 STARLINK-5277,1 55269U 23010A   24030.47974155  .00000008  00000-0  84432-5 0  9998,2 55269  69.9997 183.9898 0002977 270.2032  89.8786 14.98330065 57259,6950.193,96.107,574.127,569.989,0.0
55269.0,STARLINK-5277,PAYLOAD,2024-01-30 14:43:05,14.98329279,0.0003003,69.9996,183.6531,270.3802,89.7013,-1.728e-06,-1.14e-06,0.0,0 STARLINK-5277,1 55269U 23010A   24030.61326230 -.00000114  00000-0 -17280-5 0  9996,2 55269  69.9996 183.6531 0003003 270.3802  89.7013 14.98329279 57860,6950.195,96.107,574.147,569.973,0.0
55269.0,STARLINK-5277,PAYLOAD,2024-01-30 19:31:30,14.98328631,0.000303,69.9998,183.1485,271.1719,88.9093,-9.4389e-06,-2.06e-06,0.0,0 STARLINK-5277,1 55269U 23010A   24030.81354313 -.00000206  00000-0 -94389-5 0  9998,2 55269  69.9998 183.1485 0003030 271.1719  88.9093 14.98328631 57894,6950.197,96.107,574.168,569.956,0.0
55269.0,STARLINK-5277,PAYLOAD,2024-01-31 11:32:50,14.98328179,0.0003097,69.9999,181.4656,270.8859,89.1945,-6.5734e-07,-1.01e-06,0.0,0 STARLINK-5277,1 55269U 23010A   24031.48114326 -.00000101  00000-0 -65734-6 0  9997,2 55269  69.9999 181.4656 0003097 270.8859  89.1945 14.98328179 57403,6950.199,96.107,574.216,569.911,0.0
55269.0,STARLINK-5277,PAYLOAD,2024-01-31 19:33:30,14.98331135,0.0002995,70.0002,180.6242,269.7006,90.3809,2.9042e-05,2.54e-06,0.0,0 STARLINK-5277,1 55269U 23010A   24031.81494065  .00000254  00000-0  29042-4 0  9992,2 55269  70.0002 180.6242 0002995 269.7006  90.3809 14.98331135 58040,6950.189,96.107,574.136,569.973,0.0
55269.0,STARLINK-5277,PAYLOAD,2024-02-01 11:34:51,14.98327123,0.0002925,70.0005,178.9414,268.2223,91.8601,4.6989e-05,4.68e-06,0.0,0 STARLINK-5277,1 55269U 23010A   24032.48254273  .00000468  00000-0  46989-4 0  9997,2 55269  70.0005 178.9414 0002925 268.2223  91.8601 14.98327123 57555,6950.202,96.107,574.1,570.034,0.0
55269.0,STARLINK-5277,PAYLOAD,2024-02-01 16:23:15,14.98327681,0.000292,70.0005,178.4364,268.0642,92.0182,5.1625e-05,5.23e-06,0.0,0 STARLINK-5277,1 55269U 23010A   24032.68282268  .00000523  00000-0  51625-4 0  9999,2 55269  70.0005 178.4364 0002920 268.0642  92.0182 14.98327681 58177,6950.2,96.107,574.095,570.036,0.0
55269.0,STARLINK-5277,PAYLOAD,2024-02-02 11:36:52,14.98334417,0.0003004,70.0006,176.4159,269.6942,90.3873,4.7781e-05,4.77e-06,0.0,0 STARLINK-5277,1 55269U 23010A   24033.48393789  .00000477  00000-0  47781-4 0  9995,2 55269  70.0006 176.4159 0003004 269.6942  90.3873 14.98334417 57703,6950.179,96.107,574.132,569.956,0.0
55269.0,STARLINK-5277,PAYLOAD,2024-02-02 14:49:08,14.98335032,0.0002998,70.0005,176.0794,269.7313,90.3503,5.4969e-05,5.63e-06,0.0,0 STARLINK-5277,1 55269U 23010A   24033.61745701  .00000563  00000-0  54969-4 0  9997,2 55269  70.0005 176.0794 0002998 269.7313  90.3503 14.98335032 58319,6950.177,96.107,574.126,569.959,0.0
55269.0,STARLINK-5277,PAYLOAD,2024-02-02 19:37:32,14.98337641,0.0002961,70.0006,175.5744,269.2385,90.8435,8.1962e-05,8.85e-06,0.0,0 STARLINK-5277,1 55269U 23010A   24033.81773384  .00000885  00000-0  81962-4 0  9997,2 55269  70.0006 175.5744 0002961 269.2385  90.8435 14.98337641 58343,6950.169,96.107,574.092,569.976,0.0
55269.0,STARLINK-5277,PAYLOAD,2024-02-03 13:15:01,14.98327501,0.0002591,70.0018,173.7239,262.9674,97.1191,1.1582e-05,4.5e-07,0.0,0 STARLINK-5277,1 55269U 23010A   24034.55210185  .00000045  00000-0  11582-4 0  9993,2 55269  70.0018 173.7239 0002591 262.9674  97.1191 14.98327501 58450,6950.201,96.107,573.866,570.265,0.0
55269.0,STARLINK-5277,PAYLOAD,2024-02-03 18:03:25,14.98328083,0.0003021,70.0007,173.2184,268.6898,91.3915,-2.1386e-05,-3.48e-06,0.0,0 STARLINK-5277,1 55269U 23010A   24034.75238230 -.00000348  00000-0 -21386-4 0  9997,2 55269  70.0007 173.2184 0003021 268.6898  91.3915 14.98328083 57895,6950.199,96.107,574.163,569.964,0.0
55269.0,STARLINK-5277,PAYLOAD,2024-02-04 11:40:55,14.98318277,0.0002268,70.0026,171.3682,259.5623,100.528,-0.00011362,-1.448e-05,0.0,0 STARLINK-5277,1 55269U 23010A   24035.48675484 -.00001448  00000-0 -11362-3 0  9998,2 55269  70.0026 171.3682 0002268 259.5623 100.5280 14.98318277 58001,6950.229,96.108,573.67,570.518,0.0
55269.0,STARLINK-5277,PAYLOAD,2024-02-04 14:53:12,14.98315225,0.0002429,70.0024,171.0316,262.0622,98.0261,-0.00013857,-1.745e-05,0.0,0 STARLINK-5277,1 55269U 23010A   24035.62027836 -.00001745  00000-0 -13857-3 0  9997,2 55269  70.0024 171.0316 0002429 262.0622  98.0261 14.98315225 58614,6950.239,96.108,573.792,570.415,0.0
55269.0,STARLINK-5277,PAYLOAD,2024-02-04 18:05:28,14.98309507,0.0002602,70.0021,170.6954,262.605,97.4814,-0.00019706,-2.442e-05,0.0,0 STARLINK-5277,1 55269U 23010A   24035.75380513 -.00002442  00000-0 -19706-3 0  9999,2 55269  70.0021 170.6954 0002602 262.6050  97.4814 14.98309507 58048,6950.256,96.108,573.93,570.313,0.0
55269.0,STARLINK-5277,PAYLOAD,2024-02-05 11:42:56,14.98322102,0.0003155,70.0009,168.8427,268.8076,91.2722,4.3869e-05,4.3e-06,0.0,0 STARLINK-5277,1 55269U 23010A   24036.48815445  .00000430  00000-0  43869-4 0  9998,2 55269  70.0009 168.8427 0003155 268.8076  91.2722 14.98322102 58156,6950.217,96.108,574.275,569.89,0.0
55269.0,STARLINK-5277,PAYLOAD,2024-02-05 13:19:04,14.98322144,0.0003128,70.001,168.6745,267.9346,92.1454,5.1788e-05,5.25e-06,0.0,0 STARLINK-5277,1 55269U 23010A   24036.55491467  .00000525  00000-0  51788-4 0  9994,2 55269  70.0010 168.6745 0003128 267.9346  92.1454 14.98322144 58753,6950.217,96.108,574.256,569.908,0.0
55269.0,STARLINK-5277,PAYLOAD,2024-02-05 18:07:28,14.9832529,0.0002888,70.0018,168.1714,265.0532,95.0298,8.0319e-05,8.65e-06,0.0,0 STARLINK-5277,1 55269U 23010A   24036.75519321  .00000865  00000-0  80319-4 0  9995,2 55269  70.0018 168.1714 0002888 265.0532  95.0298 14.98325290 58786,6950.207,96.107,574.08,570.065,0.0
